NORAD_CAT_ID,OBJECT_NAME,OBJECT_TYPE,EPOCH,MEAN_MOTION,ECCENTRICITY,INCLINATION,RA_OF_ASC_NODE,ARG_OF_PERICENTER,MEAN_ANOMALY,BSTAR,MEAN_MOTION_DOT,MEAN_MOTION_DDOT,TLE_LINE0,TLE_LINE1,TLE_LINE2,SEMIMAJOR_AXIS,PERIOD,APOGEE,PERIGEE,DECAYED
53620.0,STARLINK-4615,PAYLOAD,2023-11-02 12:36:27,15.08839722,0.0001353,53.2159,126.4085,82.2219,277.8927,8.2457e-05,1.025e-05,0.0,0 STARLINK-4615,1 53620U 22104AJ  23306.52531846  .00001025  00000-0  82457-4 0  9991,2 53620  53.2159 126.4085 0001353  82.2219 277.8927 15.08839722 65519,6917.881,95.438,540.682,538.81,0.0
53620.0,STARLINK-4615,PAYLOAD,2023-11-02 22:08:46,15.08842299,0.0001321,53.2159,124.6247,83.714,276.4003,3.3258e-05,2.41e-06,0.0,0 STARLINK-4615,1 53620U 22104AJ  23306.92275721  .00000241  00000-0  33258-4 0  9996,2 53620  53.2159 124.6247 0001321  83.7140 276.4003 15.08842299 66258,6917.873,95.437,540.652,538.825,0.0
53620.0,STARLINK-4615,PAYLOAD,2023-11-03 12:27:14,15.08840074,0.0001349,53.2159,121.9482,90.3827,269.732,4.514e-05,4.31e-06,0.0,0 STARLINK-4615,1 53620U 22104AJ  23307.51891896  .00000431  00000-0  45140-4 0  9993,2 53620  53.2159 121.9482 0001349  90.3827 269.7320 15.08840074 66341,6917.88,95.438,540.678,538.812,0.0
53620.0,STARLINK-4615,PAYLOAD,2023-11-03 20:24:10,15.08845664,0.0001282,53.2165,120.4626,82.3419,277.7719,9.7378e-05,1.262e-05,0.0,0 STARLINK-4615,1 53620U 22104AJ  23307.85011647  .00001262  00000-0  97378-4 0  9991,2 53620  53.2165 120.4626 0001282  82.3419 277.7719 15.08845664 65717,6917.863,95.437,540.615,538.841,0.0
53620.0,STARLINK-4615,PAYLOAD,2023-11-03 21:59:33,15.08840669,0.0001313,53.2164,120.1653,83.7385,276.3757,0.00030988,4.647e-05,0.0,0 STARLINK-4615,1 53620U 22104AJ  23307.91635986  .00004647  00000-0  30988-3 0  9999,2 53620  53.2164 120.1653 0001313  83.7385 276.3757 15.08840669 66409,6917.878,95.438,540.652,538.835,0.0
53620.0,STARLINK-4615,PAYLOAD,2023-11-04 04:21:06,15.08838855,0.0001262,53.2165,118.9756,88.041,272.0727,6.3544e-05,7.24e-06,0.0,0 STARLINK-4615,1 53620U 22104AJ  23308.18131945  .00000724  00000-0  63544-4 0  9992,2 53620  53.2165 118.9756 0001262  88.0410 272.0727 15.08838855 65761,6917.884,95.438,540.622,538.876,0.0
53620.0,STARLINK-4615,PAYLOAD,2023-11-04 18:39:34,15.0883405,0.0001328,53.2166,116.2999,90.8562,269.2583,9.7034e-06,-1.33e-06,0.0,0 STARLINK-4615,1 53620U 22104AJ  23308.77748461 -.00000133  00000-0  97034-5 0  9991,2 53620  53.2166 116.2999 0001328  90.8562 269.2583 15.08834050 66531,6917.899,95.438,540.682,538.845,0.0
53620.0,STARLINK-4615,PAYLOAD,2023-11-05 10:33:25,15.08842141,0.0001236,53.2167,113.3261,92.8422,267.2711,0.00027244,4.051e-05,0.0,0 STARLINK-4615,1 53620U 22104AJ  23309.43988227  .00004051  00000-0  27244-3 0  9997,2 53620  53.2167 113.3261 0001236  92.8422 267.2711 15.08842141 65953,6917.874,95.437,540.594,538.884,0.0
53620.0,STARLINK-4615,PAYLOAD,2023-11-05 13:44:11,15.08848609,0.0001284,53.2165,112.7312,90.3923,269.7216,0.00020102,2.914e-05,0.0,0 STARLINK-4615,1 53620U 22104AJ  23309.57235779  .00002914  00000-0  20102-3 0  9991,2 53620  53.2165 112.7312 0001284  90.3923 269.7216 15.08848609 66653,6917.854,95.437,540.607,538.831,0.0
53620.0,STARLINK-4615,PAYLOAD,2023-11-05 18:30:21,15.08854055,0.0001529,53.2165,111.8399,91.7829,268.3338,0.00047152,7.227e-05,0.0,0 STARLINK-4615,1 53620U 22104AJ  23309.77107740  .00007227  00000-0  47152-3 0  9995,2 53620  53.2165 111.8399 0001529  91.7829 268.3338 15.08854055 66001,6917.837,95.437,540.76,538.645,0.0
53620.0,STARLINK-4615,PAYLOAD,2023-11-06 10:24:11,15.08855273,0.000157,53.2169,108.8666,90.7135,269.4037,0.00029488,4.41e-05,0.0,0 STARLINK-4615,1 53620U 22104AJ  23310.43347219  .00004410  00000-0  29488-3 0  9990,2 53620  53.2169 108.8666 0001570  90.7135 269.4037 15.08855273 66789,6917.834,95.437,540.785,538.613,0.0
53620.0,STARLINK-4615,PAYLOAD,2023-11-06 18:21:07,15.08855391,0.0001542,53.2167,107.3801,93.9683,266.1486,0.00021722,3.172e-05,0.0,0 STARLINK-4615,1 53620U 22104AJ  23310.76466871  .00003172  00000-0  21722-3 0  9999,2 53620  53.2167 107.3801 0001542  93.9683 266.1486 15.08855391 66158,6917.833,95.437,540.765,538.632,0.0
53620.0,STARLINK-4615,PAYLOAD,2023-11-07 03:53:27,15.08821752,9.55e-05,53.2161,105.5944,88.8894,271.2208,-0.00032661,-5.479e-05,0.0,0 STARLINK-4615,1 53620U 22104AJ  23311.16212177 -.00005479  00000-0 -32661-3 0  9990,2 53620  53.2161 105.5944 0000955  88.8894 271.2208 15.08821752 66214,6917.936,95.439,540.462,539.141,0.0
53620.0,STARLINK-4615,PAYLOAD,2023-11-07 10:15:00,15.08820696,0.0001079,53.2157,104.405,88.3825,271.7291,-0.00035928,-5.998e-05,0.0,0 STARLINK-4615,1 53620U 22104AJ  23311.42708469 -.00005998  00000-0 -35928-3 0  9998,2 53620  53.2157 104.4050 0001079  88.3825 271.7291 15.08820696 66934,6917.939,95.439,540.551,539.058,0.0
53620.0,STARLINK-4615,PAYLOAD,2023-11-07 16:36:32,15.08828108,0.0001353,53.2176,103.2162,81.9795,278.1351,-0.00019688,-3.419e-05,0.0,0 STARLINK-4615,1 53620U 22104AJ  23311.69204420 -.00003419  00000-0 -19688-3 0  9996,2 53620  53.2176 103.2162 0001353  81.9795 278.1351 15.08828108 66299,6917.917,95.438,540.718,538.846,0.0
53620.0,STARLINK-4615,PAYLOAD,2023-11-08 10:05:46,15.08854735,0.0001379,53.2175,99.9454,79.0822,281.0325,0.00021843,3.191e-05,0.0,0 STARLINK-4615,1 53620U 22104AJ  23312.42067533  .00003191  00000-0  21843-3 0  9991,2 53620  53.2175  99.9454 0001379  79.0822 281.0325 15.08854735 66402,6917.835,95.437,540.654,538.746,0.0
53620.0,STARLINK-4615,PAYLOAD,2023-11-08 13:16:37,15.08744521,0.0001898,53.2173,99.3516,72.9495,287.1705,-0.0013088,-0.00021003,0.0,0 STARLINK-4615,1 53620U 22104AJ  23312.55320999 -.00021003  00000-0 -13088-2 0  9998,2 53620  53.2173  99.3516 0001898  72.9495 287.1705 15.08744521 67105,6918.172,95.444,541.35,538.724,0.0
53620.0,STARLINK-4615,PAYLOAD,2023-11-08 16:27:19,15.08846459,0.0001447,53.2165,98.756,78.7626,281.3529,0.00022415,3.282e-05,0.0,0 STARLINK-4615,1 53620U 22104AJ  23312.68564048  .00003282  00000-0  22415-3 0  9999,2 53620  53.2165  98.7560 0001447  78.7626 281.3529 15.08846459 66447,6917.861,95.437,540.727,538.725,0.0
53620.0,STARLINK-4615,PAYLOAD,2023-11-09 09:56:34,15.08829239,0.0001304,53.2161,95.4835,82.8827,277.2313,0.00033395,5.029e-05,0.0,0 STARLINK-4615,1 53620U 22104AJ  23313.41429279  .00005029  00000-0  33395-3 0  9997,2 53620  53.2161  95.4835 0001304  82.8827 277.2313 15.08829239 66557,6917.913,95.438,540.68,538.876,0.0
53620.0,STARLINK-4615,PAYLOAD,2023-11-09 14:42:44,15.08835,0.0001483,53.2169,94.5921,80.3083,279.8076,0.00028532,4.255e-05,0.0,0 STARLINK-4615,1 53620U 22104AJ  23313.61301136  .00004255  00000-0  28532-3 0  9997,2 53620  53.2169  94.5921 0001483  80.3083 279.8076 15.08835000 67262,6917.896,95.438,540.787,538.735,0.0
53620.0,STARLINK-4615,PAYLOAD,2023-11-09 16:18:07,15.08836739,0.0001449,53.2174,94.2949,78.9088,281.2067,0.00026678,3.96e-05,0.0,0 STARLINK-4615,1 53620U 22104AJ  23313.67925055  .00003960  00000-0  26678-3 0  9996,2 53620  53.2174  94.2949 0001449  78.9088 281.2067 15.08836739 67273,6917.89,95.438,540.758,538.753,0.0
53620.0,STARLINK-4615,PAYLOAD,2023-11-10 14:33:30,15.08843119,0.0001552,53.2187,90.1332,81.4632,278.6536,0.00014045,1.948e-05,0.0,0 STARLINK-4615,1 53620U 22104AJ  23314.60660817  .00001948  00000-0  14045-3 0  9991,2 53620  53.2187  90.1332 0001552  81.4632 278.6536 15.08843119 67414,6917.871,95.437,540.81,538.662,0.0
53620.0,STARLINK-4615,PAYLOAD,2023-11-10 16:08:53,15.08843433,0.0001333,53.2182,89.8365,84.0602,276.0542,0.00020543,2.983e-05,0.0,0 STARLINK-4615,1 53620U 22104AJ  23314.67284645  .00002983  00000-0  20543-3 0  9999,2 53620  53.2182  89.8365 0001333  84.0602 276.0542 15.08843433 66746,6917.87,95.437,540.657,538.813,0.0
53620.0,STARLINK-4615,PAYLOAD,2023-11-11 09:38:08,15.08837726,0.0001484,53.219,86.5651,86.9712,273.145,8.3601e-05,1.043e-05,0.0,0 STARLINK-4615,1 53620U 22104AJ  23315.40149249  .00001043  00000-0  83601-4 0  9992,2 53620  53.2190  86.5651 0001484  86.9712 273.1450 15.08837726 66853,6917.887,95.438,540.779,538.726,0.0
53620.0,STARLINK-4615,PAYLOAD,2023-11-11 14:24:18,15.08839521,0.0001477,53.2191,85.6732,85.3902,274.7258,7.5542e-05,9.14e-06,0.0,0 STARLINK-4615,1 53620U 22104AJ  23315.60021133  .00000914  00000-0  75542-4 0  9996,2 53620  53.2191  85.6732 0001477  85.3902 274.7258 15.08839521 67567,6917.882,95.438,540.769,538.725,0.0
53620.0,STARLINK-4615,PAYLOAD,2023-11-11 15:59:41,15.08842663,0.0001418,53.2187,85.3752,87.8234,272.2921,0.00010611,1.401e-05,0.0,0 STARLINK-4615,1 53620U 22104AJ  23315.66644848  .00001401  00000-0  10611-3 0  9993,2 53620  53.2187  85.3752 0001418  87.8234 272.2921 15.08842663 67573,6917.872,95.437,540.718,538.756,0.0
53620.0,STARLINK-4615,PAYLOAD,2023-11-12 14:15:05,15.08837324,0.0001389,53.2187,81.2128,89.0931,271.0221,4.8316e-06,-2.11e-06,0.0,0 STARLINK-4615,1 53620U 22104AJ  23316.59381516 -.00000211  00000-0  48316-5 0  9990,2 53620  53.2187  81.2128 0001389  89.0931 271.0221 15.08837324 67714,6917.889,95.438,540.714,538.793,0.0
53620.0,STARLINK-4615,PAYLOAD,2023-11-12 19:01:14,15.08843454,0.00015,53.219,80.3189,78.204,281.912,5.2263e-05,5.44e-06,0.0,0 STARLINK-4615,1 53620U 22104AJ  23316.79253042  .00000544  00000-0  52263-4 0  9997,2 53620  53.2190  80.3189 0001500  78.2040 281.9120 15.08843454 67068,6917.87,95.437,540.773,538.697,0.0
53620.0,STARLINK-4615,PAYLOAD,2023-11-13 07:44:19,15.08843511,0.0001431,53.2188,77.9404,82.2334,277.8821,0.00010623,1.403e-05,0.0,0 STARLINK-4615,1 53620U 22104AJ  23317.32245012  .00001403  00000-0  10623-3 0  9993,2 53620  53.2188  77.9404 0001431  82.2334 277.8821 15.08843511 67821,6917.87,95.437,540.725,538.745,0.0
53620.0,STARLINK-4615,PAYLOAD,2023-11-13 12:30:28,15.08847719,0.0001447,53.2188,77.0489,84.7171,275.3986,0.00014751,2.061e-05,0.0,0 STARLINK-4615,1 53620U 22104AJ  23317.52116613  .00002061  00000-0  14751-3 0  9996,2 53620  53.2188  77.0489 0001447  84.7171 275.3986 15.08847719 67850,6917.857,95.437,540.723,538.721,0.0
